#aV2011  3  6  0  0   .00000000      96 DD+AD WGS84 FIT  NGA
## 1626       .00000000   900.00000000 55626  .0000000000000
+   32     1  2  3  4  5  6  7  8  9 10 11 12 13 14 15 16 17
+         18 19 20 21 22 23 24 25 26 27 28 29 30 31 32  0  0
+          0  0  0  0  0  0  0  0  0  0  0  0  0  0  0  0  0
+          0  0  0  0  0  0  0  0  0  0  0  0  0  0  0  0  0
+          0  0  0  0  0  0  0  0  0  0  0  0  0  0  0  0  0
++         0  0  0  0  0  0  0  0  0  0  0  0  0  0  0  0  0
++         0  0  0  0  0  0  0  0  0  0  0  0  0  0  0  0  0
++         0  0  0  0  0  0  0  0  0  0  0  0  0  0  0  0  0
++         0  0  0  0  0  0  0  0  0  0  0  0  0  0  0  0  0
++         0  0  0  0  0  0  0  0  0  0  0  0  0  0  0  0  0
%c cc cc ccc ccc cccc cccc cccc cccc ccccc ccccc ccccc ccccc
%c cc cc ccc ccc cccc cccc cccc cccc ccccc ccccc ccccc ccccc
%f  0.0000000  0.000000000  0.00000000000  0.000000000000000
%f  0.0000000  0.000000000  0.00000000000  0.000000000000000
%i    0    0    0    0      0      0      0      0         0
%i    0    0    0    0      0      0      0      0         0
/*      NGA, ST. LOUIS,MO.                                  
/*   EPHEMERIS COMPUTED FROM  3 DAYS OF DATA                
/* CCCCCCCCCCCCCCCCCCCCCCCCCCCCCCCCCCCCCCCCCCCCCCCCCCCCCCCCC
/* CCCCCCCCCCCCCCCCCCCCCCCCCCCCCCCCCCCCCCCCCCCCCCCCCCCCCCCCC
*  2011  3  6 17  0   .00000000                                                 
P  1 -25819.020229  -6542.644737   -412.558521   -213.404800                    
V  1    960.946727  -2323.081208 -31808.519024      -.028581                    
P  2  21173.820179  -9606.874197 -12357.614084    323.794623                    
V  2  -8477.432047  13902.819452 -25763.099966       .019692                    
P  3 -14841.715564   5247.313167  20992.282540    684.789607                    
V  3 -11047.533390 -25439.236383  -1104.823403       .051518                    
P  4  18236.887469   1658.659601 -19557.115215     53.370338                    
V  4 -15932.856335  18476.371731 -13083.125263       .103335                    
P  5  23456.086760  -3179.923998  12130.868784   -124.911205                    
V  5  14411.850810   5976.247494 -26150.633344      -.058837                    
P  6 -16370.062521    306.373746  21102.846332     53.809857                    
V  6  -8227.393755 -25186.406873  -5855.425755     -1.350640                    
P  7   1676.055397  17575.225439  19782.726610      5.009654                    
V  7 -18311.869101  17255.951068 -13978.092828       .008604                    
P  8  11096.107482   9431.408991  22254.877136      7.511276                    
V  8 -21056.971411  18588.459529   2095.730249       .001367                    
P  9  14076.148710 -21733.865230  -6423.117192     65.944823                    
V  9   6445.609261  -4170.971880  30876.168064       .023536                    
P 10  25327.004113   8411.266514  -2230.639897    -68.077479                    
V 10  -3194.954156   2074.940811 -31097.545120      -.010421                    
P 11 -10583.507151  23989.051221  -3137.972108   -132.323318                    
V 11  -6428.657430    644.169978  29931.301689      -.030007                    
P 12   9050.884825 -12708.236340 -21439.613805    -21.397282                    
V 12  26263.186596   7419.493364   6844.249385       .029263                    
P 13   5039.928611  26046.586671   -594.945635    280.057288                    
V 13  -1984.260724   -180.155583 -32422.798440      -.014016                    
P 14 -14089.014916 -16869.450133 -14851.534647    135.773979                    
V 14  -2863.226141 -18879.764139  23781.195544       .025150                    
P 15   6177.833625 -19786.938845  16522.219089   -145.679368                    
V 15   8296.266283  19467.507519  20383.623201       .032911                    
P 16 -24708.379225    277.743745  10164.604639   -155.655892                    
V 16 -11773.166348  -5220.551795 -28277.101281      -.028743                    
P 17  14509.425043  17546.031660 -13734.371980    183.692932                    
V 17   2458.379894  17516.252521  24519.080705       .002881                    
P 18 -14761.740095 -15964.425434  15801.351916    125.039463                    
V 18  19369.051046   2831.851774  20992.352837       .020576                    
P 19 -10047.738466  15942.339276  18580.797526   -117.560586                    
V 19  -6399.023865 -22899.972865  16523.143075      -.037469                    
P 20  -3950.779335  15384.760989 -21435.377041     48.676850                    
V 20 -26400.255750  -5558.750649    948.114932       .000440                    
P 21  -3727.790329 -17387.932855  19942.079887   -128.531568                    
V 21  18441.968638 -16604.394384 -11872.724499      -.026260                    
P 22 -23081.536329 -11434.827932   6852.398050    152.259329                    
V 22   9102.912519  -1133.573541  29381.607717      -.004837                    
P 23  -2074.271699  23417.791092 -12022.202632    321.836460                    
V 23  -6542.398807 -14140.399738 -26748.904738      -.024315                    
P 24 -13405.439819  21068.135895  -8582.444909    371.048864                    
V 24 -10234.556266   5286.590044  29036.118886       .032235                    
P 25  -6972.500902 -15940.392249 -20084.650288    -70.295427                    
V 25  25063.188515   4637.245595 -12375.050843      -.009906                    
P 26  12993.065340  -6921.448750  21480.554805   -138.142815                    
V 26   6520.674969  27919.090474   5323.937036      -.099420                    
P 27  17886.284732 -19402.369578   1172.604218    242.998741                    
V 27   1379.101300   2110.541246  32352.022362       .036582                    
P 28  20734.834253  13441.800311  10600.163547     23.683910                    
V 28 -12606.033140  -1728.037404  27977.140139       .022146                    
P 29  -4058.179103 -26022.105455  -3510.658680    190.402585                    
V 29   3768.524728   3743.980571 -31333.824284       .028589                    
P 30 -26198.265039  -3521.241142   2346.013538    327.027111                    
V 30  -2847.164959  -3481.463231 -31514.801373       .028889                    
P 31 -18666.682021   1165.568024 -18732.363818     49.718665                    
V 31  15997.305334 -18063.304402 -16674.141940       .047638                    
P 32 -13246.573528  10516.461606 -20088.499760   -209.636655                    
V 32 -24481.941354  -9652.196311  11329.585902      -.076840                    
EOF
